ONEWEB-0461             
1 51649U 22012AD  24244.96243310 -.00000306  00000+0 -82043-3 0  9996
2 51649  87.9160 136.1649 0001844  74.1839 285.9495 13.17647582127733
ONEWEB-0463             
1 51650U 22012AE  24244.94467791  .00000051  00000+0  97736-4 0  9998
2 51650  87.9168 136.2187 0001860  72.4173 287.7161 13.17649003127517
ONEWEB-0464             
1 51651U 22012AF  24245.18365055 -.00000212  00000+0 -64325-3 0  9994
2 51651  87.8991 166.4026 0001643  85.6611 274.4704 13.10371623124976
ONEWEB-0468             
1 51652U 22012AG  24245.19028129 -.00000454  00000+0 -13366-2 0  9990
2 51652  87.8992 166.3941 0001895  76.7513 283.3826 13.10369736124947
ONEWEB-0473             
1 51653U 22012AH  24244.48813830  .00000118  00000+0  30225-3 0  9992
2 51653  87.8990 166.5358 0001819  74.2249 285.9078 13.10369266123567
ONEWEB-0474             
1 51654U 22012AJ  24245.16706496  .00000561  00000+0  15713-2 0  9994
2 51654  87.8980 166.3916 0001715  75.5752 284.5565 13.10371001124931
ONEWEB-0475             
1 51655U 22012AK  24244.95597893  .00000029  00000+0  41734-4 0  9993
2 51655  87.9166 136.1959 0001438  72.8960 287.2329 13.17649213127531
ONEWEB-0490             
1 54113U 22138A   24244.91146903  .00000124  00000+0  27794-3 0  9997
2 54113  87.9086  75.1174 0001673  91.6187 268.5137 13.19727122 90532
