<?xml version="1.0" encoding="UTF-8"?>
<ndm xmlns:xsi="http://www.w3.org/2001/XMLSchema-instance" xsi:noNamespaceSchemaLocation="https://sanaregistry.org/r/ndmxml_unqualified/ndmxml-2.0.0-master-2.0.xsd">
<omm id="CCSDS_OMM_VERS" version="2.0">
<header><CREATION_DATE/><ORIGINATOR/></header><body><segment><metadata><OBJECT_NAME>ONEWEB-0461</OBJECT_NAME><OBJECT_ID>2022-012AD</OBJECT_ID><CENTER_NAME>EARTH</CENTER_NAME><REF_FRAME>TEME</REF_FRAME><TIME_SYSTEM>UTC</TIME_SYSTEM><MEAN_ELEMENT_THEORY>SGP4</MEAN_ELEMENT_THEORY></metadata><data><meanElements><EPOCH>2024-08-31T23:05:54.219840</EPOCH><MEAN_MOTION>13.17647582</MEAN_MOTION><ECCENTRICITY>.0001844</ECCENTRICITY><INCLINATION>87.9160</INCLINATION><RA_OF_ASC_NODE>136.1649</RA_OF_ASC_NODE><ARG_OF_PERICENTER>74.1839</ARG_OF_PERICENTER><MEAN_ANOMALY>285.9495</MEAN_ANOMALY></meanElements><tleParameters><EPHEMERIS_TYPE>0</EPHEMERIS_TYPE><CLASSIFICATION_TYPE>U</CLASSIFICATION_TYPE><NORAD_CAT_ID>51649</NORAD_CAT_ID><ELEMENT_SET_NO>999</ELEMENT_SET_NO><REV_AT_EPOCH>12773</REV_AT_EPOCH><BSTAR>-.82043E-3</BSTAR><MEAN_MOTION_DOT>-.306E-5</MEAN_MOTION_DOT><MEAN_MOTION_DDOT>0</MEAN_MOTION_DDOT></tleParameters></data></segment></body></omm>
<omm id="CCSDS_OMM_VERS" version="2.0">
<header><CREATION_DATE/><ORIGINATOR/></header><body><segment><metadata><OBJECT_NAME>ONEWEB-0463</OBJECT_NAME><OBJECT_ID>2022-012AE</OBJECT_ID><CENTER_NAME>EARTH</CENTER_NAME><REF_FRAME>TEME</REF_FRAME><TIME_SYSTEM>UTC</TIME_SYSTEM><MEAN_ELEMENT_THEORY>SGP4</MEAN_ELEMENT_THEORY></metadata><data><meanElements><EPOCH>2024-08-31T22:40:20.171424</EPOCH><MEAN_MOTION>13.17649003</MEAN_MOTION><ECCENTRICITY>.000186</ECCENTRICITY><INCLINATION>87.9168</INCLINATION><RA_OF_ASC_NODE>136.2187</RA_OF_ASC_NODE><ARG_OF_PERICENTER>72.4173</ARG_OF_PERICENTER><MEAN_ANOMALY>287.7161</MEAN_ANOMALY></meanElements><tleParameters><EPHEMERIS_TYPE>0</EPHEMERIS_TYPE><CLASSIFICATION_TYPE>U</CLASSIFICATION_TYPE><NORAD_CAT_ID>51650</NORAD_CAT_ID><ELEMENT_SET_NO>999</ELEMENT_SET_NO><REV_AT_EPOCH>12751</REV_AT_EPOCH><BSTAR>.97736E-4</BSTAR><MEAN_MOTION_DOT>.51E-6</MEAN_MOTION_DOT><MEAN_MOTION_DDOT>0</MEAN_MOTION_DDOT></tleParameters></data></segment></body></omm>
<omm id="CCSDS_OMM_VERS" version="2.0">
<header><CREATION_DATE/><ORIGINATOR/></header><body><segment><metadata><OBJECT_NAME>ONEWEB-0464</OBJECT_NAME><OBJECT_ID>2022-012AF</OBJECT_ID><CENTER_NAME>EARTH</CENTER_NAME><REF_FRAME>TEME</REF_FRAME><TIME_SYSTEM>UTC</TIME_SYSTEM><MEAN_ELEMENT_THEORY>SGP4</MEAN_ELEMENT_THEORY></metadata><data><meanElements><EPOCH>2024-09-01T04:24:27.407520</EPOCH><MEAN_MOTION>13.10371623</MEAN_MOTION><ECCENTRICITY>.0001643</ECCENTRICITY><INCLINATION>87.8991</INCLINATION><RA_OF_ASC_NODE>166.4026</RA_OF_ASC_NODE><ARG_OF_PERICENTER>85.6611</ARG_OF_PERICENTER><MEAN_ANOMALY>274.4704</MEAN_ANOMALY></meanElements><tleParameters><EPHEMERIS_TYPE>0</EPHEMERIS_TYPE><CLASSIFICATION_TYPE>U</CLASSIFICATION_TYPE><NORAD_CAT_ID>51651</NORAD_CAT_ID><ELEMENT_SET_NO>999</ELEMENT_SET_NO><REV_AT_EPOCH>12497</REV_AT_EPOCH><BSTAR>-.64325E-3</BSTAR><MEAN_MOTION_DOT>-.212E-5</MEAN_MOTION_DOT><MEAN_MOTION_DDOT>0</MEAN_MOTION_DDOT></tleParameters></data></segment></body></omm>
<omm id="CCSDS_OMM_VERS" version="2.0">
<header><CREATION_DATE/><ORIGINATOR/></header><body><segment><metadata><OBJECT_NAME>ONEWEB-0468</OBJECT_NAME><OBJECT_ID>2022-012AG</OBJECT_ID><CENTER_NAME>EARTH</CENTER_NAME><REF_FRAME>TEME</REF_FRAME><TIME_SYSTEM>UTC</TIME_SYSTEM><MEAN_ELEMENT_THEORY>SGP4</MEAN_ELEMENT_THEORY></metadata><data><meanElements><EPOCH>2024-09-01T04:34:00.303456</EPOCH><MEAN_MOTION>13.10369736</MEAN_MOTION><ECCENTRICITY>.0001895</ECCENTRICITY><INCLINATION>87.8992</INCLINATION><RA_OF_ASC_NODE>166.3941</RA_OF_ASC_NODE><ARG_OF_PERICENTER>76.7513</ARG_OF_PERICENTER><MEAN_ANOMALY>283.3826</MEAN_ANOMALY></meanElements><tleParameters><EPHEMERIS_TYPE>0</EPHEMERIS_TYPE><CLASSIFICATION_TYPE>U</CLASSIFICATION_TYPE><NORAD_CAT_ID>51652</NORAD_CAT_ID><ELEMENT_SET_NO>999</ELEMENT_SET_NO><REV_AT_EPOCH>12494</REV_AT_EPOCH><BSTAR>-.13366E-2</BSTAR><MEAN_MOTION_DOT>-.454E-5</MEAN_MOTION_DOT><MEAN_MOTION_DDOT>0</MEAN_MOTION_DDOT></tleParameters></data></segment></body></omm>
<omm id="CCSDS_OMM_VERS" version="2.0">
<header><CREATION_DATE/><ORIGINATOR/></header><body><segment><metadata><OBJECT_NAME>ONEWEB-0473</OBJECT_NAME><OBJECT_ID>2022-012AH</OBJECT_ID><CENTER_NAME>EARTH</CENTER_NAME><REF_FRAME>TEME</REF_FRAME><TIME_SYSTEM>UTC</TIME_SYSTEM><MEAN_ELEMENT_THEORY>SGP4</MEAN_ELEMENT_THEORY></metadata><data><meanElements><EPOCH>2024-08-31T11:42:55.149120</EPOCH><MEAN_MOTION>13.10369266</MEAN_MOTION><ECCENTRICITY>.0001819</ECCENTRICITY><INCLINATION>87.8990</INCLINATION><RA_OF_ASC_NODE>166.5358</RA_OF_ASC_NODE><ARG_OF_PERICENTER>74.2249</ARG_OF_PERICENTER><MEAN_ANOMALY>285.9078</MEAN_ANOMALY></meanElements><tleParameters><EPHEMERIS_TYPE>0</EPHEMERIS_TYPE><CLASSIFICATION_TYPE>U</CLASSIFICATION_TYPE><NORAD_CAT_ID>51653</NORAD_CAT_ID><ELEMENT_SET_NO>999</ELEMENT_SET_NO><REV_AT_EPOCH>12356</REV_AT_EPOCH><BSTAR>.30225E-3</BSTAR><MEAN_MOTION_DOT>.118E-5</MEAN_MOTION_DOT><MEAN_MOTION_DDOT>0</MEAN_MOTION_DDOT></tleParameters></data></segment></body></omm>
<omm id="CCSDS_OMM_VERS" version="2.0">
<header><CREATION_DATE/><ORIGINATOR/></header><body><segment><metadata><OBJECT_NAME>ONEWEB-0474</OBJECT_NAME><OBJECT_ID>2022-012AJ</OBJECT_ID><CENTER_NAME>EARTH</CENTER_NAME><REF_FRAME>TEME</REF_FRAME><TIME_SYSTEM>UTC</TIME_SYSTEM><MEAN_ELEMENT_THEORY>SGP4</MEAN_ELEMENT_THEORY></metadata><data><meanElements><EPOCH>2024-09-01T04:00:34.412544</EPOCH><MEAN_MOTION>13.10371001</MEAN_MOTION><ECCENTRICITY>.0001715</ECCENTRICITY><INCLINATION>87.8980</INCLINATION><RA_OF_ASC_NODE>166.3916</RA_OF_ASC_NODE><ARG_OF_PERICENTER>75.5752</ARG_OF_PERICENTER><MEAN_ANOMALY>284.5565</MEAN_ANOMALY></meanElements><tleParameters><EPHEMERIS_TYPE>0</EPHEMERIS_TYPE><CLASSIFICATION_TYPE>U</CLASSIFICATION_TYPE><NORAD_CAT_ID>51654</NORAD_CAT_ID><ELEMENT_SET_NO>999</ELEMENT_SET_NO><REV_AT_EPOCH>12493</REV_AT_EPOCH><BSTAR>.15713E-2</BSTAR><MEAN_MOTION_DOT>.561E-5</MEAN_MOTION_DOT><MEAN_MOTION_DDOT>0</MEAN_MOTION_DDOT></tleParameters></data></segment></body></omm>
<omm id="CCSDS_OMM_VERS" version="2.0">
<header><CREATION_DATE/><ORIGINATOR/></header><body><segment><metadata><OBJECT_NAME>ONEWEB-0475</OBJECT_NAME><OBJECT_ID>2022-012AK</OBJECT_ID><CENTER_NAME>EARTH</CENTER_NAME><REF_FRAME>TEME</REF_FRAME><TIME_SYSTEM>UTC</TIME_SYSTEM><MEAN_ELEMENT_THEORY>SGP4</MEAN_ELEMENT_THEORY></metadata><data><meanElements><EPOCH>2024-08-31T22:56:36.579552</EPOCH><MEAN_MOTION>13.17649213</MEAN_MOTION><ECCENTRICITY>.0001438</ECCENTRICITY><INCLINATION>87.9166</INCLINATION><RA_OF_ASC_NODE>136.1959</RA_OF_ASC_NODE><ARG_OF_PERICENTER>72.8960</ARG_OF_PERICENTER><MEAN_ANOMALY>287.2329</MEAN_ANOMALY></meanElements><tleParameters><EPHEMERIS_TYPE>0</EPHEMERIS_TYPE><CLASSIFICATION_TYPE>U</CLASSIFICATION_TYPE><NORAD_CAT_ID>51655</NORAD_CAT_ID><ELEMENT_SET_NO>999</ELEMENT_SET_NO><REV_AT_EPOCH>12753</REV_AT_EPOCH><BSTAR>.41734E-4</BSTAR><MEAN_MOTION_DOT>.29E-6</MEAN_MOTION_DOT><MEAN_MOTION_DDOT>0</MEAN_MOTION_DDOT></tleParameters></data></segment></body></omm>
<omm id="CCSDS_OMM_VERS" version="2.0">
<header><CREATION_DATE/><ORIGINATOR/></header><body><segment><metadata><OBJECT_NAME>ONEWEB-0490</OBJECT_NAME><OBJECT_ID>2022-138A</OBJECT_ID><CENTER_NAME>EARTH</CENTER_NAME><REF_FRAME>TEME</REF_FRAME><TIME_SYSTEM>UTC</TIME_SYSTEM><MEAN_ELEMENT_THEORY>SGP4</MEAN_ELEMENT_THEORY></metadata><data><meanElements><EPOCH>2024-08-31T21:52:30.924192</EPOCH><MEAN_MOTION>13.19727122</MEAN_MOTION><ECCENTRICITY>.0001673</ECCENTRICITY><INCLINATION>87.9086</INCLINATION><RA_OF_ASC_NODE>75.1174</RA_OF_ASC_NODE><ARG_OF_PERICENTER>91.6187</ARG_OF_PERICENTER><MEAN_ANOMALY>268.5137</MEAN_ANOMALY></meanElements><tleParameters><EPHEMERIS_TYPE>0</EPHEMERIS_TYPE><CLASSIFICATION_TYPE>U</CLASSIFICATION_TYPE><NORAD_CAT_ID>54113</NORAD_CAT_ID><ELEMENT_SET_NO>999</ELEMENT_SET_NO><REV_AT_EPOCH>9053</REV_AT_EPOCH><BSTAR>.27794E-3</BSTAR><MEAN_MOTION_DOT>.124E-5</MEAN_MOTION_DOT><MEAN_MOTION_DDOT>0</MEAN_MOTION_DDOT></tleParameters></data></segment></body></omm>

</ndm>
